import os, json
from orbitpy.mission import Mission
import time

start_time = time.process_time()

dir_path = os.path.dirname(os.path.realpath(__file__))

with open(dir_path +'/carbon_oceans_mission.json', 'r') as mission_specs:
  mission_json = json.load(mission_specs)

mission = Mission.from_json(mission_json)   

out_info = mission.execute()

print(time.process_time() - start_time)

'''
<EPOCH>2021-08-18T18:48:18.307008</EPOCH>
<MEAN_MOTION>15.39576743</MEAN_MOTION>
<ECCENTRICITY>0.00026240</ECCENTRICITY>
<INCLINATION>97.1886</INCLINATION>
<RA_OF_ASC_NODE>307.1228</RA_OF_ASC_NODE>
<ARG_OF_PERICENTER>79.4057</ARG_OF_PERICENTER>
<MEAN_ANOMALY>280.7485</MEAN_ANOMALY>

<EPOCH>2021-08-18T17:03:54.556704</EPOCH>
<MEAN_MOTION>15.39467245</MEAN_MOTION>
<ECCENTRICITY>0.00011500</ECCENTRICITY>
<INCLINATION>97.1631</INCLINATION>
<RA_OF_ASC_NODE>298.5893</RA_OF_ASC_NODE>
<ARG_OF_PERICENTER>111.3752</ARG_OF_PERICENTER>
<MEAN_ANOMALY>248.7617</MEAN_ANOMALY>

<EPOCH>2021-08-18T18:59:06.626688</EPOCH>
<MEAN_MOTION>15.39378112</MEAN_MOTION>
<ECCENTRICITY>0.00016190</ECCENTRICITY>
<INCLINATION>97.1626</INCLINATION>
<RA_OF_ASC_NODE>298.6075</RA_OF_ASC_NODE>
<ARG_OF_PERICENTER>86.2730</ARG_OF_PERICENTER>
<MEAN_ANOMALY>273.8701</MEAN_ANOMALY>

<EPOCH>2021-08-19T10:52:36.696000</EPOCH>
<MEAN_MOTION>15.39371466</MEAN_MOTION>
<ECCENTRICITY>0.00016420</ECCENTRICITY>
<INCLINATION>97.1623</INCLINATION>
<RA_OF_ASC_NODE>298.9593</RA_OF_ASC_NODE>
<ARG_OF_PERICENTER>84.0060</ARG_OF_PERICENTER>
<MEAN_ANOMALY>276.1374</MEAN_ANOMALY>

<EPOCH>2021-08-19T11:43:59.284704</EPOCH>
<MEAN_MOTION>15.24671909</MEAN_MOTION>
<ECCENTRICITY>0.00016440</ECCENTRICITY>
<INCLINATION>97.3088</INCLINATION>
<RA_OF_ASC_NODE>297.9226</RA_OF_ASC_NODE>
<ARG_OF_PERICENTER>101.0264</ARG_OF_PERICENTER>
<MEAN_ANOMALY>259.1159</MEAN_ANOMALY>

<EPOCH>2021-08-18T13:34:36.525792</EPOCH>
<MEAN_MOTION>15.40279123</MEAN_MOTION>
<ECCENTRICITY>0.00021100</ECCENTRICITY>
<INCLINATION>97.2721</INCLINATION>
<RA_OF_ASC_NODE>346.8619</RA_OF_ASC_NODE>
<ARG_OF_PERICENTER>127.8781</ARG_OF_PERICENTER>
<MEAN_ANOMALY>232.2657</MEAN_ANOMALY>


'''